ONEWEB-0628             
1 55169U 23004AF  24166.91735070  .00000356  00000+0  95326-3 0  9997
2 55169  87.8941 136.4397 0001490 107.4225 252.7066 13.12439998 71985
ONEWEB-0629             
1 55170U 23004AG  24166.95742232  .00000097  00000+0  21711-3 0  9990
2 55170  87.9159 151.6443 0002041 101.1079 259.0282 13.17648065 71152
ONEWEB-0631             
1 55171U 23004AH  24166.89279749  .00000099  00000+0  21853-3 0  9991
2 55171  87.9148 121.1904 0001745  63.4943 296.6368 13.18686501 73168
ONEWEB-0709             
1 55172U 23004AJ  24166.90793488  .00000584  00000+0  16107-2 0  9999
2 55172  87.8958 166.8179 0002275  59.8638 300.2715 13.11419794 69890
ONEWEB-0710             
1 55173U 23004AK  24166.95110281  .00000062  00000+0  12657-3 0  9997
2 55173  87.9160 151.6573 0001913  83.0229 277.1120 13.17649061 71152
ONEWEB-0711             
1 55174U 23004AL  24166.95539846 -.00000673  00000+0 -19342-2 0  9997
2 55174  87.8956 166.7777 0001247 108.6197 251.5066 13.11417261 69865
ONEWEB-0713             
1 55175U 23004AM  24166.89777335  .00000279  00000+0  75085-3 0  9995
2 55175  87.8958 166.7973 0001669  95.7109 264.4209 13.11418265 69848
ONEWEB-0715             
1 55176U 23004AN  24166.51117762  .00000087  00000+0  21058-3 0  9995
2 55176  87.8958 166.8738 0001813  78.0499 282.0832 13.11416944 69835
